STARLINK-36729
1 67905U 26036B   26061.16668981 -.01500501  00000+0 -62636-2 0  9992
2 67905  42.9949 295.9435 0001678 276.0032 249.3864 15.87236411  2438
